NORAD_CAT_ID,OBJECT_NAME,OBJECT_TYPE,EPOCH,MEAN_MOTION,ECCENTRICITY,INCLINATION,RA_OF_ASC_NODE,ARG_OF_PERICENTER,MEAN_ANOMALY,BSTAR,MEAN_MOTION_DOT,MEAN_MOTION_DDOT,TLE_LINE0,TLE_LINE1,TLE_LINE2,SEMIMAJOR_AXIS,PERIOD,APOGEE,PERIGEE,DECAYED
49759.0,STARLINK-3204,PAYLOAD,2024-07-18 13:00:25,15.08856243,0.0001269,53.2166,308.8037,63.2936,296.8186,0.0013984,0.00022047,0.0,0 STARLINK-3204,1 49759U 21115AM  24200.54196621  .00022047  00000-0  13984-2 0  9998,2 49759  53.2166 308.8037 0001269  63.2936 296.8186 15.08856243146334,6917.831,95.437,540.574,538.818,0.0
49759.0,STARLINK-3204,PAYLOAD,2024-07-18 14:35:48,15.0885707,0.0001282,53.2166,308.5062,65.4986,294.6139,0.0013769,0.00021703,0.0,0 STARLINK-3204,1 49759U 21115AM  24200.60820569  .00021703  00000-0  13769-2 0  9999,2 49759  53.2166 308.5062 0001282  65.4986 294.6139 15.08857070145234,6917.828,95.436,540.58,538.806,0.0
49759.0,STARLINK-3204,PAYLOAD,2024-07-18 16:11:11,15.08858527,0.0001262,53.2167,308.2088,76.6545,283.4588,0.0013831,0.00021804,0.0,0 STARLINK-3204,1 49759U 21115AM  24200.67444435  .00021804  00000-0  13831-2 0  9992,2 49759  53.2167 308.2088 0001262  76.6545 283.4588 15.08858527145246,6917.824,95.436,540.562,538.816,0.0
49759.0,STARLINK-3204,PAYLOAD,2024-07-19 12:51:12,15.08843701,0.0001263,53.2157,304.3401,120.5509,239.5608,0.00065613,0.00010171,0.0,0 STARLINK-3204,1 49759U 21115AM  24201.53556458  .00010171  00000-0  65613-3 0  9998,2 49759  53.2157 304.3401 0001263 120.5509 239.5608 15.08843701146481,6917.869,95.437,540.608,538.86,0.0
49759.0,STARLINK-3204,PAYLOAD,2024-07-19 14:26:36,15.08843444,0.0001251,53.2161,304.045,79.6068,280.5066,0.0003492,5.274e-05,0.0,0 STARLINK-3204,1 49759U 21115AM  24201.60180679  .00005274  00000-0  34920-3 0  9999,2 49759  53.2161 304.0450 0001251  79.6068 280.5066 15.08843444145384,6917.87,95.437,540.6,538.869,0.0
49759.0,STARLINK-3204,PAYLOAD,2024-07-20 12:42:00,15.0883686,0.0001221,53.216,299.8812,75.7066,284.4061,0.00067186,0.0001042,0.0,0 STARLINK-3204,1 49759U 21115AM  24202.52916675  .00010420  00000-0  67186-3 0  9993,2 49759  53.2160 299.8812 0001221  75.7066 284.4061 15.08836860146639,6917.89,95.438,540.6,538.91,0.0
49759.0,STARLINK-3204,PAYLOAD,2024-07-20 14:17:23,15.08842808,0.0001188,53.216,299.584,76.4381,283.6744,0.0010303,0.00016148,0.0,0 STARLINK-3204,1 49759U 21115AM  24202.59540652  .00016148  00000-0  10303-2 0  9999,2 49759  53.2160 299.5840 0001188  76.4381 283.6744 15.08842808145533,6917.872,95.437,540.559,538.915,0.0
49759.0,STARLINK-3204,PAYLOAD,2024-07-21 12:32:47,15.08833203,0.0001313,53.2158,295.4237,72.9027,287.2108,0.00010923,1.451e-05,0.0,0 STARLINK-3204,1 49759U 21115AM  24203.52277378  .00001451  00000-0  10923-3 0  9995,2 49759  53.2158 295.4237 0001313  72.9027 287.2108 15.08833203146784,6917.901,95.438,540.674,538.858,0.0
49759.0,STARLINK-3204,PAYLOAD,2024-07-22 06:02:02,15.08845301,0.0001298,53.216,292.1525,68.0032,292.1098,0.0004151,6.326e-05,0.0,0 STARLINK-3204,1 49759U 21115AM  24204.25141238  .00006326  00000-0  41510-3 0  9993,2 49759  53.2160 292.1525 0001298  68.0032 292.1098 15.08845301146892,6917.864,95.437,540.627,538.831,0.0
49759.0,STARLINK-3204,PAYLOAD,2024-07-23 09:03:35,15.08846854,0.0001184,53.2167,287.0953,107.6765,252.4356,0.00025995,3.852e-05,0.0,0 STARLINK-3204,1 49759U 21115AM  24205.37748987  .00003852  00000-0  25995-3 0  9991,2 49759  53.2167 287.0953 0001184 107.6765 252.4356 15.08846854147064,6917.859,95.437,540.544,538.905,0.0
49759.0,STARLINK-3204,PAYLOAD,2024-07-24 05:43:36,15.08839027,0.000103,53.2156,283.2292,98.2213,261.8896,4.2265e-05,3.85e-06,0.0,0 STARLINK-3204,1 49759U 21115AM  24206.23861252  .00000385  00000-0  42265-4 0  9996,2 49759  53.2156 283.2292 0001030  98.2213 261.8896 15.08839027147190,6917.883,95.438,540.461,539.036,0.0
49759.0,STARLINK-3204,PAYLOAD,2024-07-24 10:29:45,15.08835107,0.0001384,53.2145,282.3311,122.532,237.5806,-2.1491e-05,-6.3e-06,0.0,0 STARLINK-3204,1 49759U 21115AM  24206.43733364 -.00000630  00000-0 -21491-4 0  9993,2 49759  53.2145 282.3311 0001384 122.5320 237.5806 15.08835107146119,6917.895,95.438,540.718,538.803,0.0
49759.0,STARLINK-3204,PAYLOAD,2024-07-25 05:34:23,15.08853143,0.000126,53.215,278.7609,127.7953,232.3153,-0.00013992,-2.515e-05,0.0,0 STARLINK-3204,1 49759U 21115AM  24207.23221252 -.00002515  00000-0 -13992-3 0  9990,2 49759  53.2150 278.7609 0001260 127.7953 232.3153 15.08853143146237,6917.84,95.437,540.577,538.834,0.0
49759.0,STARLINK-3204,PAYLOAD,2024-07-25 10:20:32,15.08840085,0.0001359,53.2161,277.8727,115.3308,244.7825,0.00013657,1.886e-05,0.0,0 STARLINK-3204,1 49759U 21115AM  24207.43093339  .00001886  00000-0  13657-3 0  9991,2 49759  53.2161 277.8727 0001359 115.3308 244.7825 15.08840085147376,6917.88,95.438,540.685,538.805,0.0
49759.0,STARLINK-3204,PAYLOAD,2024-07-26 10:11:19,15.08841993,0.0001144,53.2156,273.4155,97.7966,262.3156,0.00021776,3.18e-05,0.0,0 STARLINK-3204,1 49759U 21115AM  24208.42453186  .00003180  00000-0  21776-3 0  9991,2 49759  53.2156 273.4155 0001144  97.7966 262.3156 15.08841993146418,6917.874,95.437,540.531,538.948,0.0
49759.0,STARLINK-3204,PAYLOAD,2024-07-26 16:32:51,15.08852208,0.0001211,53.2149,272.2254,97.8948,262.2181,0.00027969,4.168e-05,0.0,0 STARLINK-3204,1 49759U 21115AM  24208.68948590  .00004168  00000-0  27969-3 0  9994,2 49759  53.2149 272.2254 0001211  97.8948 262.2181 15.08852208147568,6917.843,95.437,540.546,538.87,0.0
49759.0,STARLINK-3204,PAYLOAD,2024-07-26 21:19:00,15.08853662,0.0001182,53.2147,271.3318,77.7045,282.4079,0.00023029,3.38e-05,0.0,0 STARLINK-3204,1 49759U 21115AM  24208.88820458  .00003380  00000-0  23029-3 0  9996,2 49759  53.2147 271.3318 0001182  77.7045 282.4079 15.08853662146484,6917.839,95.437,540.521,538.886,0.0
49759.0,STARLINK-3204,PAYLOAD,2024-07-27 10:02:07,15.08831868,0.0001354,53.2147,268.953,83.2653,276.8493,-0.00010662,-1.984e-05,0.0,0 STARLINK-3204,1 49759U 21115AM  24209.41813744 -.00001984  00000-0 -10662-3 0  9995,2 49759  53.2147 268.9530 0001354  83.2653 276.8493 15.08831868147673,6917.905,95.438,540.707,538.834,0.0
49759.0,STARLINK-3204,PAYLOAD,2024-07-27 16:23:39,15.08839198,0.0001556,53.2164,267.7639,86.3416,273.7754,1.8154e-05,1e-08,0.0,0 STARLINK-3204,1 49759U 21115AM  24209.68309506  .00000001  00000-0  18154-4 0  9992,2 49759  53.2164 267.7639 0001556  86.3416 273.7754 15.08839198146606,6917.883,95.438,540.824,538.671,0.0
49759.0,STARLINK-3204,PAYLOAD,2024-07-28 13:03:40,15.08847764,0.0001305,53.2138,263.8998,91.424,268.6901,0.00059238,9.154e-05,0.0,0 STARLINK-3204,1 49759U 21115AM  24210.54421358  .00009154  00000-0  59238-3 0  9994,2 49759  53.2138 263.8998 0001305  91.4240 268.6901 15.08847764147848,6917.857,95.437,540.624,538.819,0.0
49759.0,STARLINK-3204,PAYLOAD,2024-07-29 12:54:26,15.08847057,0.0001333,53.2143,259.4396,86.4413,273.6732,0.00025217,3.728e-05,0.0,0 STARLINK-3204,1 49759U 21115AM  24211.53781223  .00003728  00000-0  25217-3 0  9995,2 49759  53.2143 259.4396 0001333  86.4413 273.6732 15.08847057147993,6917.859,95.437,540.646,538.802,0.0
49759.0,STARLINK-3204,PAYLOAD,2024-07-29 20:51:22,15.08847985,0.000134,53.2144,257.9526,86.322,273.7926,0.00022003,3.216e-05,0.0,0 STARLINK-3204,1 49759U 21115AM  24211.86901097  .00003216  00000-0  22003-3 0  9996,2 49759  53.2144 257.9526 0001340  86.3220 273.7926 15.08847985146934,6917.856,95.437,540.648,538.794,0.0
49759.0,STARLINK-3204,PAYLOAD,2024-07-30 09:34:28,15.08824169,0.0001582,53.2166,255.5735,100.9885,259.1285,0.00042657,6.504e-05,0.0,0 STARLINK-3204,1 49759U 21115AM  24212.39894290  .00006504  00000-0  42657-3 0  9991,2 49759  53.2166 255.5735 0001582 100.9885 259.1285 15.08824169148120,6917.929,95.439,540.888,538.699,0.0
49759.0,STARLINK-3204,PAYLOAD,2024-07-31 12:36:01,15.0883586,0.000149,53.217,250.5184,93.9468,266.1695,1.1078e-05,-1.12e-06,0.0,0 STARLINK-3204,1 49759U 21115AM  24213.52502016 -.00000112  00000-0  11078-4 0  9993,2 49759  53.2170 250.5184 0001490  93.9468 266.1695 15.08835860148295,6917.893,95.438,540.789,538.727,0.0
49759.0,STARLINK-3204,PAYLOAD,2024-08-01 12:26:48,15.08845902,0.0001322,53.216,246.0573,90.8091,269.3052,0.00017601,2.515e-05,0.0,0 STARLINK-3204,1 49759U 21115AM  24214.51861211  .00002515  00000-0  17601-3 0  9993,2 49759  53.2160 246.0573 0001322  90.8091 269.3052 15.08845902147332,6917.862,95.437,540.642,538.813,0.0
49759.0,STARLINK-3204,PAYLOAD,2024-08-02 10:42:12,15.08838042,0.0001357,53.2144,241.8944,89.8853,270.2295,6.8855e-05,8.08e-06,0.0,0 STARLINK-3204,1 49759U 21115AM  24215.44597838  .00000808  00000-0  68855-4 0  9998,2 49759  53.2144 241.8944 0001357  89.8853 270.2295 15.08838042148586,6917.886,95.438,540.69,538.813,0.0
49759.0,STARLINK-3204,PAYLOAD,2024-08-02 18:39:08,15.08839466,0.0001364,53.2144,240.4076,89.8791,270.2357,6.1145e-05,6.85e-06,0.0,0 STARLINK-3204,1 49759U 21115AM  24215.77717785  .00000685  00000-0  61145-4 0  9997,2 49759  53.2144 240.4076 0001364  89.8791 270.2357 15.08839466147529,6917.882,95.438,540.691,538.803,0.0
49759.0,STARLINK-3204,PAYLOAD,2024-08-03 08:57:36,15.08842995,0.0001387,53.2156,237.731,87.2754,272.8397,2.2056e-05,6.3e-07,0.0,0 STARLINK-3204,1 49759U 21115AM  24216.37333927  .00000063  00000-0  22056-4 0  9994,2 49759  53.2156 237.7310 0001387  87.2754 272.8397 15.08842995147611,6917.871,95.437,540.696,538.777,0.0
49759.0,STARLINK-3204,PAYLOAD,2024-08-03 18:29:54,15.08847643,0.0001413,53.216,235.9475,89.4258,270.6896,9.2694e-05,1.188e-05,0.0,0 STARLINK-3204,1 49759U 21115AM  24216.77077345  .00001188  00000-0  92694-4 0  9991,2 49759  53.2160 235.9475 0001413  89.4258 270.6896 15.08847643148785,6917.857,95.437,540.7,538.745,0.0
49759.0,STARLINK-3204,PAYLOAD,2024-08-04 08:48:23,15.08844264,0.000149,53.2161,233.2712,90.137,269.9793,0.00013399,1.845e-05,0.0,0 STARLINK-3204,1 49759U 21115AM  24217.36693391  .00001845  00000-0  13399-3 0  9996,2 49759  53.2161 233.2712 0001490  90.1370 269.9793 15.08844264147760,6917.867,95.437,540.763,538.702,0.0
